IRIDIUM 119             
1 42959U 17061E   25203.12160583 -.00000017  00000+0 -13169-4 0  9995
2 42959  86.4020 163.2054 0002235  78.7392 281.4055 14.34217418407506
IRIDIUM 107             
1 42960U 17061F   25202.93132344  .00000210  00000+0  67825-4 0  9990
2 42960  86.4018 163.3041 0001947  76.0788 284.0624 14.34219777407489
IRIDIUM 132             
1 42961U 17061G   25202.93766992  .00000017  00000+0 -10961-5 0  9999
2 42961  86.4017 163.2833 0002175  84.2681 275.8763 14.34217455407487
IRIDIUM 136             
1 42962U 17061H   25202.89961493 -.00000010  00000+0 -10529-4 0  9991
2 42962  86.4019 163.3043 0002155  78.9329 281.2109 14.34217456407498
IRIDIUM 139             
1 42963U 17061J   25203.18503104  .00000056  00000+0  12803-4 0  9991
2 42963  86.4019 163.2415 0002052  82.3190 277.8239 14.34217791407545
IRIDIUM 125             
1 42964U 17061K   25202.96304052  .00000014  00000+0 -22013-5 0  9998
2 42964  86.4024 163.3893 0002216  69.1543 290.9890 14.34217677407520
IRIDIUM 135             
1 43070U 17083A   25202.79762955  .00000033  00000+0  46560-5 0  9995
2 43070  86.3957 100.1550 0002250  90.3571 269.7883 14.34217707396793
IRIDIUM 138             
1 43071U 17083B   25202.75323215  .00000025  00000+0  17291-5 0  9994
2 43071  86.3947  99.8399 0002594  76.6954 283.4531 14.34217634396771
